[{"OBJECT_NAME":"STARLINK-36813","OBJECT_ID":"2026-035P","EPOCH":"2026-03-04T02:53:41.078112","MEAN_MOTION":16.01542028,"ECCENTRICITY":6.21e-5,"INCLINATION":97.274,"RA_OF_ASC_NODE":355.0434,"ARG_OF_PERICENTER":88.9217,"MEAN_ANOMALY":271.2134,"EPHEMERIS_TYPE":0,"CLASSIFICATION_TYPE":"U","NORAD_CAT_ID":67892,"ELEMENT_SET_NO":999,"REV_AT_EPOCH":295,"BSTAR":1.4673e-5,"MEAN_MOTION_DOT":7.412e-5,"MEAN_MOTION_DDOT":2.2812e-6},{"OBJECT_NAME":"STARLINK-36803","OBJECT_ID":"2026-035Q","EPOCH":"2026-03-04T01:29:47.771808","MEAN_MOTION":16.0088948,"ECCENTRICITY":3.12e-5,"INCLINATION":97.2757,"RA_OF_ASC_NODE":354.971,"ARG_OF_PERICENTER":117.9304,"MEAN_ANOMALY":242.2007,"EPHEMERIS_TYPE":0,"CLASSIFICATION_TYPE":"U","NORAD_CAT_ID":67893,"ELEMENT_SET_NO":999,"REV_AT_EPOCH":294,"BSTAR":-0.0005748,"MEAN_MOTION_DOT":-0.0030711,"MEAN_MOTION_DDOT":3.6862e-5},{"OBJECT_NAME":"STARLINK-36846","OBJECT_ID":"2026-035R","EPOCH":"2026-03-04T01:27:34.699392","MEAN_MOTION":16.01087752,"ECCENTRICITY":6.44e-5,"INCLINATION":97.2759,"RA_OF_ASC_NODE":354.9733,"ARG_OF_PERICENTER":183.8033,"MEAN_ANOMALY":176.3241,"EPHEMERIS_TYPE":0,"CLASSIFICATION_TYPE":"U","NORAD_CAT_ID":67894,"ELEMENT_SET_NO":999,"REV_AT_EPOCH":294,"BSTAR":-0.00064435,"MEAN_MOTION_DOT":-0.00348067,"MEAN_MOTION_DDOT":4.6503e-5},{"OBJECT_NAME":"STARLINK-36866","OBJECT_ID":"2026-035S","EPOCH":"2026-03-04T01:26:36.513312","MEAN_MOTION":16.01202455,"ECCENTRICITY":7.95e-5,"INCLINATION":97.2759,"RA_OF_ASC_NODE":354.9738,"ARG_OF_PERICENTER":212.9588,"MEAN_ANOMALY":147.1642,"EPHEMERIS_TYPE":0,"CLASSIFICATION_TYPE":"U","NORAD_CAT_ID":67895,"ELEMENT_SET_NO":999,"REV_AT_EPOCH":294,"BSTAR":-0.00062205,"MEAN_MOTION_DOT":-0.00338278,"MEAN_MOTION_DDOT":4.4182e-5},{"OBJECT_NAME":"STARLINK-36877","OBJECT_ID":"2026-035T","EPOCH":"2026-03-04T01:28:38.353728","MEAN_MOTION":16.00997081,"ECCENTRICITY":5.95e-5,"INCLINATION":97.2758,"RA_OF_ASC_NODE":354.9717,"ARG_OF_PERICENTER":186.2727,"MEAN_ANOMALY":173.8545,"EPHEMERIS_TYPE":0,"CLASSIFICATION_TYPE":"U","NORAD_CAT_ID":67896,"ELEMENT_SET_NO":999,"REV_AT_EPOCH":294,"BSTAR":-0.00061674,"MEAN_MOTION_DOT":-0.00331475,"MEAN_MOTION_DDOT":4.2455e-5},{"OBJECT_NAME":"STARLINK-36870","OBJECT_ID":"2026-035U","EPOCH":"2026-03-04T01:25:29.841888","MEAN_MOTION":16.0132342,"ECCENTRICITY":0.0001898,"INCLINATION":97.2752,"RA_OF_ASC_NODE":354.9746,"ARG_OF_PERICENTER":214.4248,"MEAN_ANOMALY":145.6908,"EPHEMERIS_TYPE":0,"CLASSIFICATION_TYPE":"U","NORAD_CAT_ID":67897,"ELEMENT_SET_NO":999,"REV_AT_EPOCH":294,"BSTAR":-0.00084347,"MEAN_MOTION_DOT":-0.00461478,"MEAN_MOTION_DDOT":7.8751e-5},{"OBJECT_NAME":"STARLINK-36810","OBJECT_ID":"2026-035V","EPOCH":"2026-03-04T00:00:00.998784","MEAN_MOTION":16.01253037,"ECCENTRICITY":0.0001066,"INCLINATION":97.2747,"RA_OF_ASC_NODE":354.9109,"ARG_OF_PERICENTER":117.1172,"MEAN_ANOMALY":264.4431,"EPHEMERIS_TYPE":0,"CLASSIFICATION_TYPE":"U","NORAD_CAT_ID":67898,"ELEMENT_SET_NO":999,"REV_AT_EPOCH":284,"BSTAR":-0.0020037,"MEAN_MOTION_DOT":-0.01086243,"MEAN_MOTION_DDOT":0.00038748},{"OBJECT_NAME":"STARLINK-36878","OBJECT_ID":"2026-035W","EPOCH":"2026-03-04T01:22:54.111072","MEAN_MOTION":16.01594199,"ECCENTRICITY":8.93e-5,"INCLINATION":97.2752,"RA_OF_ASC_NODE":354.9769,"ARG_OF_PERICENTER":43.9241,"MEAN_ANOMALY":316.2109,"EPHEMERIS_TYPE":0,"CLASSIFICATION_TYPE":"U","NORAD_CAT_ID":67899,"ELEMENT_SET_NO":999,"REV_AT_EPOCH":294,"BSTAR":-0.00056438,"MEAN_MOTION_DOT":-0.00314008,"MEAN_MOTION_DDOT":3.8718e-5},{"OBJECT_NAME":"STARLINK-36361","OBJECT_ID":"2026-035X","EPOCH":"2026-03-04T02:51:55.744416","MEAN_MOTION":16.01631653,"ECCENTRICITY":0.0001406,"INCLINATION":97.2749,"RA_OF_ASC_NODE":355.0458,"ARG_OF_PERICENTER":179.9431,"MEAN_ANOMALY":180.1849,"EPHEMERIS_TYPE":0,"CLASSIFICATION_TYPE":"U","NORAD_CAT_ID":67900,"ELEMENT_SET_NO":999,"REV_AT_EPOCH":295,"BSTAR":-0.00040103,"MEAN_MOTION_DOT":-0.00223885,"MEAN_MOTION_DDOT":2.1088e-5},{"OBJECT_NAME":"STARLINK-36336","OBJECT_ID":"2026-035Y","EPOCH":"2026-03-04T00:00:00.998784","MEAN_MOTION":16.01848044,"ECCENTRICITY":9.14e-5,"INCLINATION":97.2748,"RA_OF_ASC_NODE":354.9209,"ARG_OF_PERICENTER":125.1232,"MEAN_ANOMALY":278.6701,"EPHEMERIS_TYPE":0,"CLASSIFICATION_TYPE":"U","NORAD_CAT_ID":67901,"ELEMENT_SET_NO":999,"REV_AT_EPOCH":289,"BSTAR":-0.0018244,"MEAN_MOTION_DOT":-0.01024078,"MEAN_MOTION_DDOT":0.00034982},{"OBJECT_NAME":"STARLINK-36876","OBJECT_ID":"2026-035Z","EPOCH":"2026-03-04T00:00:00.998784","MEAN_MOTION":16.01665708,"ECCENTRICITY":0.0001092,"INCLINATION":97.275,"RA_OF_ASC_NODE":354.9178,"ARG_OF_PERICENTER":118.7727,"MEAN_ANOMALY":276.8029,"EPHEMERIS_TYPE":0,"CLASSIFICATION_TYPE":"U","NORAD_CAT_ID":67902,"ELEMENT_SET_NO":999,"REV_AT_EPOCH":284,"BSTAR":-0.0019706,"MEAN_MOTION_DOT":-0.01093955,"MEAN_MOTION_DDOT":0.00039445},{"OBJECT_NAME":"STARLINK-36257","OBJECT_ID":"2026-035AA","EPOCH":"2026-03-04T00:00:00.998784","MEAN_MOTION":16.01753494,"ECCENTRICITY":8.39e-5,"INCLINATION":97.2745,"RA_OF_ASC_NODE":354.9184,"ARG_OF_PERICENTER":104.2,"MEAN_ANOMALY":294.8694,"EPHEMERIS_TYPE":0,"CLASSIFICATION_TYPE":"U","NORAD_CAT_ID":67903,"ELEMENT_SET_NO":999,"REV_AT_EPOCH":289,"BSTAR":-0.0019223,"MEAN_MOTION_DOT":-0.01072704,"MEAN_MOTION_DDOT":0.00038077},{"OBJECT_NAME":"STARLINK-36814","OBJECT_ID":"2026-036A","EPOCH":"2026-03-04T04:00:03.000096","MEAN_MOTION":15.82005845,"ECCENTRICITY":0.0002832,"INCLINATION":42.9942,"RA_OF_ASC_NODE":283.6593,"ARG_OF_PERICENTER":278.4262,"MEAN_ANOMALY":141.9038,"EPHEMERIS_TYPE":0,"CLASSIFICATION_TYPE":"U","NORAD_CAT_ID":67904,"ELEMENT_SET_NO":999,"REV_AT_EPOCH":276,"BSTAR":0.00022405,"MEAN_MOTION_DOT":0.00046885,"MEAN_MOTION_DDOT":0},{"OBJECT_NAME":"STARLINK-36729","OBJECT_ID":"2026-036B","EPOCH":"2026-03-04T04:00:03.000096","MEAN_MOTION":15.82023312,"ECCENTRICITY":0.0002384,"INCLINATION":42.994,"RA_OF_ASC_NODE":283.6479,"ARG_OF_PERICENTER":281.2893,"MEAN_ANOMALY":143.314,"EPHEMERIS_TYPE":0,"CLASSIFICATION_TYPE":"U","NORAD_CAT_ID":67905,"ELEMENT_SET_NO":999,"REV_AT_EPOCH":276,"BSTAR":-4.0186e-7,"MEAN_MOTION_DOT":-6.19e-6,"MEAN_MOTION_DDOT":0},{"OBJECT_NAME":"STARLINK-36763","OBJECT_ID":"2026-036C","EPOCH":"2026-03-04T04:00:03.000096","MEAN_MOTION":15.81995787,"ECCENTRICITY":0.0001794,"INCLINATION":42.9939,"RA_OF_ASC_NODE":283.6372,"ARG_OF_PERICENTER":286.1191,"MEAN_ANOMALY":142.7574,"EPHEMERIS_TYPE":0,"CLASSIFICATION_TYPE":"U","NORAD_CAT_ID":67906,"ELEMENT_SET_NO":999,"REV_AT_EPOCH":276,"BSTAR":0.00027276,"MEAN_MOTION_DOT":0.00057228,"MEAN_MOTION_DDOT":0},{"OBJECT_NAME":"STARLINK-36742","OBJECT_ID":"2026-036D","EPOCH":"2026-03-04T04:00:03.000096","MEAN_MOTION":15.8210457,"ECCENTRICITY":0.0002588,"INCLINATION":42.994,"RA_OF_ASC_NODE":283.6266,"ARG_OF_PERICENTER":265.4426,"MEAN_ANOMALY":167.6434,"EPHEMERIS_TYPE":0,"CLASSIFICATION_TYPE":"U","NORAD_CAT_ID":67907,"ELEMENT_SET_NO":999,"REV_AT_EPOCH":276,"BSTAR":-0.00039924,"MEAN_MOTION_DOT":-0.00084152,"MEAN_MOTION_DDOT":0}]
