STARLINK-36813          
1 67892U 26035P   26063.12061433  .00007412  22812-5  14673-4 0  9994
2 67892  97.2740 355.0434 0000621  88.9217 271.2134 16.01542028  2956
STARLINK-36803          
1 67893U 26035Q   26063.06235847 -.00307110  36862-4 -57480-3 0  9991
2 67893  97.2757 354.9710 0000312 117.9304 242.2007 16.00889480  2948
STARLINK-36846          
1 67894U 26035R   26063.06081828 -.00348067  46503-4 -64435-3 0  9997
2 67894  97.2759 354.9733 0000644 183.8033 176.3241 16.01087752  2945
STARLINK-36866          
1 67895U 26035S   26063.06014483 -.00338278  44182-4 -62205-3 0  9998
2 67895  97.2759 354.9738 0000795 212.9588 147.1642 16.01202455  2947
STARLINK-36877          
1 67896U 26035T   26063.06155502 -.00331475  42455-4 -61674-3 0  9999
2 67896  97.2758 354.9717 0000595 186.2727 173.8545 16.00997081  2943
STARLINK-36870          
1 67897U 26035U   26063.05937317 -.00461478  78751-4 -84347-3 0  9998
2 67897  97.2752 354.9746 0001898 214.4248 145.6908 16.01323420  2940
STARLINK-36810          
1 67898U 26035V   26063.00001156 -.01086243  38748-3 -20037-2 0  9997
2 67898  97.2747 354.9109 0001066 117.1172 264.4431 16.01253037  2846
STARLINK-36878          
1 67899U 26035W   26063.05757073 -.00314008  38718-4 -56438-3 0  9994
2 67899  97.2752 354.9769 0000893  43.9241 316.2109 16.01594199  2941
STARLINK-36361          
1 67900U 26035X   26063.11939519 -.00223885  21088-4 -40103-3 0  9997
2 67900  97.2749 355.0458 0001406 179.9431 180.1849 16.01631653  2956
STARLINK-36336          
1 67901U 26035Y   26063.00001156 -.01024078  34982-3 -18244-2 0  9993
2 67901  97.2748 354.9209 0000914 125.1232 278.6701 16.01848044  2890
STARLINK-36876          
1 67902U 26035Z   26063.00001156 -.01093955  39445-3 -19706-2 0  9997
2 67902  97.2750 354.9178 0001092 118.7727 276.8029 16.01665708  2846
STARLINK-36257          
1 67903U 26035AA  26063.00001156 -.01072704  38077-3 -19223-2 0  9991
2 67903  97.2745 354.9184 0000839 104.2000 294.8694 16.01753494  2893
STARLINK-36814          
1 67904U 26036A   26063.16670139  .00046885  00000+0  22405-3 0  9999
2 67904  42.9942 283.6593 0002832 278.4262 141.9038 15.82005845  2769
STARLINK-36729          
1 67905U 26036B   26063.16670139 -.00000619  00000+0 -40186-6 0  9996
2 67905  42.9940 283.6479 0002384 281.2893 143.3140 15.82023312  2764
STARLINK-36763          
1 67906U 26036C   26063.16670139  .00057228  00000+0  27276-3 0  9995
2 67906  42.9939 283.6372 0001794 286.1191 142.7574 15.81995787  2761
STARLINK-36742          
1 67907U 26036D   26063.16670139 -.00084152  00000+0 -39924-3 0  9997
2 67907  42.9940 283.6266 0002588 265.4426 167.6434 15.82104570  2763
